[{"OBJECT_NAME":"STARLINK-30176","OBJECT_ID":"2023-107W","EPOCH":"2026-03-17T21:16:49.979712","MEAN_MOTION":15.26758121,"ECCENTRICITY":0.00016792,"INCLINATION":42.9982,"RA_OF_ASC_NODE":289.55,"ARG_OF_PERICENTER":294.6598,"MEAN_ANOMALY":65.4078,"EPHEMERIS_TYPE":0,"CLASSIFICATION_TYPE":"U","NORAD_CAT_ID":57477,"ELEMENT_SET_NO":999,"REV_AT_EPOCH":14640,"BSTAR":-0.00014182664,"MEAN_MOTION_DOT":-4.064e-5,"MEAN_MOTION_DDOT":0},{"OBJECT_NAME":"STARLINK-30154","OBJECT_ID":"2023-113A","EPOCH":"2026-03-17T18:33:09.810144","MEAN_MOTION":15.26748129,"ECCENTRICITY":0.00015551,"INCLINATION":42.9987,"RA_OF_ASC_NODE":330.2177,"ARG_OF_PERICENTER":268.7005,"MEAN_ANOMALY":91.3668,"EPHEMERIS_TYPE":0,"CLASSIFICATION_TYPE":"U","NORAD_CAT_ID":57495,"ELEMENT_SET_NO":999,"REV_AT_EPOCH":14475,"BSTAR":-2.6437719e-5,"MEAN_MOTION_DOT":-9.69e-6,"MEAN_MOTION_DDOT":0},{"OBJECT_NAME":"STARLINK-30145","OBJECT_ID":"2023-113B","EPOCH":"2026-03-17T23:30:49.465152","MEAN_MOTION":15.26735448,"ECCENTRICITY":0.00013057,"INCLINATION":43.0001,"RA_OF_ASC_NODE":329.199,"ARG_OF_PERICENTER":270.3986,"MEAN_ANOMALY":89.6716,"EPHEMERIS_TYPE":0,"CLASSIFICATION_TYPE":"U","NORAD_CAT_ID":57496,"ELEMENT_SET_NO":999,"REV_AT_EPOCH":14483,"BSTAR":3.357732e-5,"MEAN_MOTION_DOT":6.41e-6,"MEAN_MOTION_DDOT":0},{"OBJECT_NAME":"STARLINK-30226","OBJECT_ID":"2023-113C","EPOCH":"2026-03-17T17:04:50.990592","MEAN_MOTION":15.26734844,"ECCENTRICITY":0.00020174,"INCLINATION":43.0022,"RA_OF_ASC_NODE":330.64,"ARG_OF_PERICENTER":292.0609,"MEAN_ANOMALY":68.0029,"EPHEMERIS_TYPE":0,"CLASSIFICATION_TYPE":"U","NORAD_CAT_ID":57497,"ELEMENT_SET_NO":999,"REV_AT_EPOCH":14480,"BSTAR":0.00032589425,"MEAN_MOTION_DOT":8.491e-5,"MEAN_MOTION_DDOT":0},{"OBJECT_NAME":"STARLINK-30203","OBJECT_ID":"2023-113D","EPOCH":"2026-03-17T18:05:53.877120","MEAN_MOTION":15.26742714,"ECCENTRICITY":0.00011977,"INCLINATION":42.9996,"RA_OF_ASC_NODE":330.0877,"ARG_OF_PERICENTER":264.1781,"MEAN_ANOMALY":95.8934,"EPHEMERIS_TYPE":0,"CLASSIFICATION_TYPE":"U","NORAD_CAT_ID":57498,"ELEMENT_SET_NO":999,"REV_AT_EPOCH":14493,"BSTAR":3.4752874e-5,"MEAN_MOTION_DOT":6.73e-6,"MEAN_MOTION_DDOT":0},{"OBJECT_NAME":"STARLINK-30169","OBJECT_ID":"2023-113E","EPOCH":"2026-03-17T22:28:41.617920","MEAN_MOTION":15.275623,"ECCENTRICITY":0.00012614,"INCLINATION":43.0002,"RA_OF_ASC_NODE":315.3121,"ARG_OF_PERICENTER":261.8521,"MEAN_ANOMALY":98.2188,"EPHEMERIS_TYPE":0,"CLASSIFICATION_TYPE":"U","NORAD_CAT_ID":57499,"ELEMENT_SET_NO":999,"REV_AT_EPOCH":14494,"BSTAR":-1.2433421e-5,"MEAN_MOTION_DOT":-6.04e-6,"MEAN_MOTION_DDOT":0},{"OBJECT_NAME":"STARLINK-30164","OBJECT_ID":"2023-113F","EPOCH":"2026-03-17T17:06:41.154912","MEAN_MOTION":15.26743379,"ECCENTRICITY":5.417e-5,"INCLINATION":43.0002,"RA_OF_ASC_NODE":330.6364,"ARG_OF_PERICENTER":275.6402,"MEAN_ANOMALY":84.4387,"EPHEMERIS_TYPE":0,"CLASSIFICATION_TYPE":"U","NORAD_CAT_ID":57500,"ELEMENT_SET_NO":999,"REV_AT_EPOCH":14490,"BSTAR":0.00018326834,"MEAN_MOTION_DOT":4.66e-5,"MEAN_MOTION_DDOT":0},{"OBJECT_NAME":"STARLINK-30072","OBJECT_ID":"2023-113G","EPOCH":"2026-03-18T00:01:00.965568","MEAN_MOTION":15.26749511,"ECCENTRICITY":7.846e-5,"INCLINATION":42.9977,"RA_OF_ASC_NODE":329.3383,"ARG_OF_PERICENTER":266.6884,"MEAN_ANOMALY":93.3878,"EPHEMERIS_TYPE":0,"CLASSIFICATION_TYPE":"U","NORAD_CAT_ID":57501,"ELEMENT_SET_NO":999,"REV_AT_EPOCH":14483,"BSTAR":6.4279508e-5,"MEAN_MOTION_DOT":1.466e-5,"MEAN_MOTION_DDOT":0},{"OBJECT_NAME":"STARLINK-30230","OBJECT_ID":"2023-113J","EPOCH":"2026-03-17T23:07:36.621984","MEAN_MOTION":15.26743413,"ECCENTRICITY":0.00011734,"INCLINATION":42.9976,"RA_OF_ASC_NODE":329.068,"ARG_OF_PERICENTER":234.9852,"MEAN_ANOMALY":125.0889,"EPHEMERIS_TYPE":0,"CLASSIFICATION_TYPE":"U","NORAD_CAT_ID":57503,"ELEMENT_SET_NO":999,"REV_AT_EPOCH":14483,"BSTAR":0.00015193922,"MEAN_MOTION_DOT":3.818e-5,"MEAN_MOTION_DDOT":0},{"OBJECT_NAME":"STARLINK-30213","OBJECT_ID":"2023-113K","EPOCH":"2026-03-17T17:30:16.952832","MEAN_MOTION":15.26744542,"ECCENTRICITY":0.00011074,"INCLINATION":42.997,"RA_OF_ASC_NODE":330.7434,"ARG_OF_PERICENTER":256.4949,"MEAN_ANOMALY":103.5779,"EPHEMERIS_TYPE":0,"CLASSIFICATION_TYPE":"U","NORAD_CAT_ID":57504,"ELEMENT_SET_NO":999,"REV_AT_EPOCH":14490,"BSTAR":0.00022815099,"MEAN_MOTION_DOT":5.866e-5,"MEAN_MOTION_DDOT":0},{"OBJECT_NAME":"STARLINK-30227","OBJECT_ID":"2023-113L","EPOCH":"2026-03-17T17:01:02.990496","MEAN_MOTION":15.19152121,"ECCENTRICITY":0.00051473,"INCLINATION":42.9977,"RA_OF_ASC_NODE":317.6018,"ARG_OF_PERICENTER":259.785,"MEAN_ANOMALY":100.2418,"EPHEMERIS_TYPE":0,"CLASSIFICATION_TYPE":"U","NORAD_CAT_ID":57505,"ELEMENT_SET_NO":999,"REV_AT_EPOCH":14505,"BSTAR":0.00051072882,"MEAN_MOTION_DOT":0.00010716,"MEAN_MOTION_DDOT":0},{"OBJECT_NAME":"STARLINK-30212","OBJECT_ID":"2023-113M","EPOCH":"2026-03-17T18:05:53.600640","MEAN_MOTION":15.26751534,"ECCENTRICITY":0.00013586,"INCLINATION":43.001,"RA_OF_ASC_NODE":330.9293,"ARG_OF_PERICENTER":267.4683,"MEAN_ANOMALY":92.6012,"EPHEMERIS_TYPE":0,"CLASSIFICATION_TYPE":"U","NORAD_CAT_ID":57506,"ELEMENT_SET_NO":999,"REV_AT_EPOCH":14474,"BSTAR":0.00019889166,"MEAN_MOTION_DOT":5.081e-5,"MEAN_MOTION_DDOT":0},{"OBJECT_NAME":"STARLINK-30219","OBJECT_ID":"2023-113N","EPOCH":"2026-03-16T23:41:28.921056","MEAN_MOTION":15.22743334,"ECCENTRICITY":0.0001199,"INCLINATION":42.9996,"RA_OF_ASC_NODE":335.5057,"ARG_OF_PERICENTER":231.711,"MEAN_ANOMALY":128.3633,"EPHEMERIS_TYPE":0,"CLASSIFICATION_TYPE":"U","NORAD_CAT_ID":57507,"ELEMENT_SET_NO":999,"REV_AT_EPOCH":14478,"BSTAR":0.00021899,"MEAN_MOTION_DOT":4.965e-5,"MEAN_MOTION_DDOT":0},{"OBJECT_NAME":"STARLINK-30074","OBJECT_ID":"2023-113P","EPOCH":"2026-03-17T23:39:29.687328","MEAN_MOTION":15.2674866,"ECCENTRICITY":0.00020267,"INCLINATION":42.999,"RA_OF_ASC_NODE":329.2328,"ARG_OF_PERICENTER":277.0525,"MEAN_ANOMALY":83.0096,"EPHEMERIS_TYPE":0,"CLASSIFICATION_TYPE":"U","NORAD_CAT_ID":57508,"ELEMENT_SET_NO":999,"REV_AT_EPOCH":14473,"BSTAR":5.0244188e-5,"MEAN_MOTION_DOT":1.088e-5,"MEAN_MOTION_DDOT":0},{"OBJECT_NAME":"STARLINK-30082","OBJECT_ID":"2023-113Q","EPOCH":"2026-03-17T01:25:00.351840","MEAN_MOTION":15.27565027,"ECCENTRICITY":0.000142,"INCLINATION":43.0025,"RA_OF_ASC_NODE":334.3336,"ARG_OF_PERICENTER":264.4034,"MEAN_ANOMALY":95.6655,"EPHEMERIS_TYPE":0,"CLASSIFICATION_TYPE":"U","NORAD_CAT_ID":57509,"ELEMENT_SET_NO":999,"REV_AT_EPOCH":14480,"BSTAR":-0.00012341,"MEAN_MOTION_DOT":-3.655e-5,"MEAN_MOTION_DDOT":0},{"OBJECT_NAME":"STARLINK-30153","OBJECT_ID":"2023-113R","EPOCH":"2026-03-17T10:21:49.667904","MEAN_MOTION":15.26743796,"ECCENTRICITY":0.0001367,"INCLINATION":43.0016,"RA_OF_ASC_NODE":331.9793,"ARG_OF_PERICENTER":249.7559,"MEAN_ANOMALY":110.3145,"EPHEMERIS_TYPE":0,"CLASSIFICATION_TYPE":"U","NORAD_CAT_ID":57510,"ELEMENT_SET_NO":999,"REV_AT_EPOCH":14475,"BSTAR":3.1918366e-5,"MEAN_MOTION_DOT":5.97e-6,"MEAN_MOTION_DDOT":0},{"OBJECT_NAME":"STARLINK-30147","OBJECT_ID":"2023-113S","EPOCH":"2026-03-17T22:00:03.000096","MEAN_MOTION":15.27576328,"ECCENTRICITY":0.00014396,"INCLINATION":43.0015,"RA_OF_ASC_NODE":329.3928,"ARG_OF_PERICENTER":263.9532,"MEAN_ANOMALY":180.6291,"EPHEMERIS_TYPE":0,"CLASSIFICATION_TYPE":"U","NORAD_CAT_ID":57511,"ELEMENT_SET_NO":999,"REV_AT_EPOCH":567,"BSTAR":-0.00060855738,"MEAN_MOTION_DOT":-0.00016968,"MEAN_MOTION_DDOT":0},{"OBJECT_NAME":"STARLINK-30157","OBJECT_ID":"2023-113T","EPOCH":"2026-03-17T21:48:40.656096","MEAN_MOTION":15.2674349,"ECCENTRICITY":0.00014413,"INCLINATION":43.0015,"RA_OF_ASC_NODE":303.8317,"ARG_OF_PERICENTER":258.0582,"MEAN_ANOMALY":102.0108,"EPHEMERIS_TYPE":0,"CLASSIFICATION_TYPE":"U","NORAD_CAT_ID":57512,"ELEMENT_SET_NO":999,"REV_AT_EPOCH":14523,"BSTAR":0.00010233993,"MEAN_MOTION_DOT":2.487e-5,"MEAN_MOTION_DDOT":0},{"OBJECT_NAME":"STARLINK-30168","OBJECT_ID":"2023-113U","EPOCH":"2026-03-17T16:49:52.978368","MEAN_MOTION":15.27310829,"ECCENTRICITY":0.00011681,"INCLINATION":43.0001,"RA_OF_ASC_NODE":330.5234,"ARG_OF_PERICENTER":255.726,"MEAN_ANOMALY":104.3462,"EPHEMERIS_TYPE":0,"CLASSIFICATION_TYPE":"U","NORAD_CAT_ID":57513,"ELEMENT_SET_NO":999,"REV_AT_EPOCH":14474,"BSTAR":0.0021857259,"MEAN_MOTION_DOT":0.00059879,"MEAN_MOTION_DDOT":0},{"OBJECT_NAME":"STARLINK-30231","OBJECT_ID":"2023-113V","EPOCH":"2026-03-17T23:04:38.488512","MEAN_MOTION":15.26742298,"ECCENTRICITY":0.00012647,"INCLINATION":43.004,"RA_OF_ASC_NODE":329.0562,"ARG_OF_PERICENTER":258.2196,"MEAN_ANOMALY":101.8514,"EPHEMERIS_TYPE":0,"CLASSIFICATION_TYPE":"U","NORAD_CAT_ID":57514,"ELEMENT_SET_NO":999,"REV_AT_EPOCH":14494,"BSTAR":6.2161788e-5,"MEAN_MOTION_DOT":1.408e-5,"MEAN_MOTION_DDOT":0},{"OBJECT_NAME":"STARLINK-30081","OBJECT_ID":"2023-113W","EPOCH":"2026-03-17T18:18:31.097088","MEAN_MOTION":15.27604626,"ECCENTRICITY":0.00013642,"INCLINATION":42.9994,"RA_OF_ASC_NODE":330.16,"ARG_OF_PERICENTER":243.8088,"MEAN_ANOMALY":116.2624,"EPHEMERIS_TYPE":0,"CLASSIFICATION_TYPE":"U","NORAD_CAT_ID":57515,"ELEMENT_SET_NO":999,"REV_AT_EPOCH":14491,"BSTAR":0.00035213127,"MEAN_MOTION_DOT":9.447e-5,"MEAN_MOTION_DDOT":0},{"OBJECT_NAME":"STARLINK-30149","OBJECT_ID":"2023-113X","EPOCH":"2026-03-17T23:02:43.107360","MEAN_MOTION":15.26739527,"ECCENTRICITY":0.00018658,"INCLINATION":42.9994,"RA_OF_ASC_NODE":329.0531,"ARG_OF_PERICENTER":241.2272,"MEAN_ANOMALY":118.8392,"EPHEMERIS_TYPE":0,"CLASSIFICATION_TYPE":"U","NORAD_CAT_ID":57516,"ELEMENT_SET_NO":999,"REV_AT_EPOCH":14484,"BSTAR":3.9615016e-5,"MEAN_MOTION_DOT":8.03e-6,"MEAN_MOTION_DDOT":0},{"OBJECT_NAME":"STARLINK-30259","OBJECT_ID":"2023-115A","EPOCH":"2026-03-17T22:00:03.000096","MEAN_MOTION":15.27577341,"ECCENTRICITY":0.00014067,"INCLINATION":42.9989,"RA_OF_ASC_NODE":315.1739,"ARG_OF_PERICENTER":277.2119,"MEAN_ANOMALY":277.1006,"EPHEMERIS_TYPE":0,"CLASSIFICATION_TYPE":"U","NORAD_CAT_ID":57521,"ELEMENT_SET_NO":999,"REV_AT_EPOCH":579,"BSTAR":-7.7066564e-5,"MEAN_MOTION_DOT":-2.382e-5,"MEAN_MOTION_DDOT":0}]
